[
  {
    "callingCode": "376",
    "code": "AD",
    "code3": "AND",
    "emoji": "ðŸ‡¦ðŸ‡©",
    "name": "Andorra",
    "nationality": "Andorran",
    "unicode": "U+1F1E6 U+1F1E9"
  },
  {
    "callingCode": "971",
    "code": "AE",
    "code3": "ARE",
    "emoji": "ðŸ‡¦ðŸ‡ª",
    "name": "United Arab Emirates",
    "nationality": "Emiratis",
    "unicode": "U+1F1E6 U+1F1EA"
  },
  {
    "callingCode": "93",
    "code": "AF",
    "code3": "AFG",
    "emoji": "ðŸ‡¦ðŸ‡«",
    "name": "Afghanistan",
    "nationality": "Afghan",
    "unicode": "U+1F1E6 U+1F1EB"
  },
  {
    "callingCode": "1-268",
    "code": "AG",
    "code3": "ATG",
    "emoji": "ðŸ‡¦ðŸ‡¬",
    "name": "Antigua & Barbuda",
    "nationality": "Antiguan / Barbudan",
    "unicode": "U+1F1E6 U+1F1EC"
  },
  {
    "callingCode": "1-264",
    "code": "AI",
    "code3": "AIA",
    "emoji": "ðŸ‡¦ðŸ‡®",
    "name": "Anguilla",
    "nationality": "Anguillan",
    "unicode": "U+1F1E6 U+1F1EE"
  },
  {
    "callingCode": "355",
    "code": "AL",
    "code3": "ALB",
    "emoji": "ðŸ‡¦ðŸ‡±",
    "name": "Albania",
    "nationality": "Albanian",
    "unicode": "U+1F1E6 U+1F1F1"
  },
  {
    "callingCode": "374",
    "code": "AM",
    "code3": "ARM",
    "emoji": "ðŸ‡¦ðŸ‡²",
    "name": "Armenia",
    "nationality": "Armenian",
    "unicode": "U+1F1E6 U+1F1F2"
  },
  {
    "callingCode": "244",
    "code": "AO",
    "code3": "AGO",
    "emoji": "ðŸ‡¦ðŸ‡´",
    "name": "Angola",
    "nationality": "Angolan",
    "unicode": "U+1F1E6 U+1F1F4"
  },
  {
    "callingCode": "1",
    "code": "AQ",
    "code3": "ATA",
    "emoji": "ðŸ‡¦ðŸ‡¶",
    "name": "Antarctica",
    "nationality": "Antarctican",
    "unicode": "U+1F1E6 U+1F1F6"
  },
  {
    "callingCode": "54",
    "code": "AR",
    "code3": "ARG",
    "emoji": "ðŸ‡¦ðŸ‡·",
    "name": "Argentina",
    "nationality": "Argentine",
    "unicode": "U+1F1E6 U+1F1F7"
  },
  {
    "callingCode": "1-684",
    "code": "AS",
    "code3": "ASM",
    "emoji": "ðŸ‡¦ðŸ‡¸",
    "name": "American Samoa",
    "nationality": "American",
    "unicode": "U+1F1E6 U+1F1F8"
  },
  {
    "callingCode": "43",
    "code": "AT",
    "code3": "AUT",
    "emoji": "ðŸ‡¦ðŸ‡¹",
    "name": "Austria",
    "nationality": "Austrian",
    "unicode": "U+1F1E6 U+1F1F9"
  },
  {
    "callingCode": "61",
    "code": "AU",
    "code3": "AUS",
    "emoji": "ðŸ‡¦ðŸ‡º",
    "name": "Australia",
    "nationality": "Australian",
    "unicode": "U+1F1E6 U+1F1FA"
  },
  {
    "callingCode": "279",
    "code": "AW",
    "code3": "ABW",
    "emoji": "ðŸ‡¦ðŸ‡¼",
    "name": "Aruba",
    "nationality": "Aruban",
    "unicode": "U+1F1E6 U+1F1FC"
  },
  {
    "callingCode": "358-18",
    "code": "AX",
    "code3": "ALA",
    "emoji": "ðŸ‡¦ðŸ‡½",
    "name": "Ã…land Islands",
    "nationality": "Ã…landish",
    "unicode": "U+1F1E6 U+1F1FD"
  },
  {
    "callingCode": "994",
    "code": "AZ",
    "code3": "AZE",
    "emoji": "ðŸ‡¦ðŸ‡¿",
    "name": "Azerbaijan",
    "nationality": "Azerbaijani",
    "unicode": "U+1F1E6 U+1F1FF"
  },
  {
    "callingCode": "387",
    "code": "BA",
    "code3": "BIH",
    "emoji": "ðŸ‡§ðŸ‡¦",
    "name": "Bosnia & Herzegovina",
    "nationality": "Bosnian / Herzegovinian",
    "unicode": "U+1F1E7 U+1F1E6"
  },
  {
    "callingCode": "1",
    "code": "BB",
    "code3": "BRB",
    "emoji": "ðŸ‡§ðŸ‡§",
    "name": "Barbados",
    "nationality": "Barbadian",
    "unicode": "U+1F1E7 U+1F1E7"
  },
  {
    "callingCode": "880",
    "code": "BD",
    "code3": "BGD",
    "emoji": "ðŸ‡§ðŸ‡©",
    "name": "Bangladesh",
    "nationality": "Bangladeshi",
    "unicode": "U+1F1E7 U+1F1E9"
  },
  {
    "callingCode": "32",
    "code": "BE",
    "code3": "BEL",
    "emoji": "ðŸ‡§ðŸ‡ª",
    "name": "Belgium",
    "nationality": "Belgian",
    "unicode": "U+1F1E7 U+1F1EA"
  },
  {
    "callingCode": "226",
    "code": "BF",
    "code3": "BFA",
    "emoji": "ðŸ‡§ðŸ‡«",
    "name": "Burkina Faso",
    "nationality": "Burkinan",
    "unicode": "U+1F1E7 U+1F1EB"
  },
  {
    "callingCode": "359",
    "code": "BG",
    "code3": "BGR",
    "emoji": "ðŸ‡§ðŸ‡¬",
    "name": "Bulgaria",
    "nationality": "Bulgarian",
    "unicode": "U+1F1E7 U+1F1EC"
  },
  {
    "callingCode": "973",
    "code": "BH",
    "code3": "BHR",
    "emoji": "ðŸ‡§ðŸ‡­",
    "name": "Bahrain",
    "nationality": "Bahraini",
    "unicode": "U+1F1E7 U+1F1ED"
  },
  {
    "callingCode": "257",
    "code": "BI",
    "code3": "BDI",
    "emoji": "ðŸ‡§ðŸ‡®",
    "name": "Burundi",
    "nationality": "Burundian",
    "unicode": "U+1F1E7 U+1F1EE"
  },
  {
    "callingCode": "229",
    "code": "BJ",
    "code3": "BEN",
    "emoji": "ðŸ‡§ðŸ‡¯",
    "name": "Benin",
    "nationality": "Beninese",
    "unicode": "U+1F1E7 U+1F1EF"
  },
  {
    "callingCode": "590",
    "code": "BL",
    "code3": "BLM",
    "emoji": "ðŸ‡§ðŸ‡±",
    "name": "St. BarthÃ©lemy",
    "nationality": "BarthÃ©lemois(es)",
    "unicode": "U+1F1E7 U+1F1F1"
  },
  {
    "callingCode": "441",
    "code": "BM",
    "code3": "BMU",
    "emoji": "ðŸ‡§ðŸ‡²",
    "name": "Bermuda",
    "nationality": "Bermudian",
    "unicode": "U+1F1E7 U+1F1F2"
  },
  {
    "callingCode": "673",
    "code": "BN",
    "code3": "BRN",
    "emoji": "ðŸ‡§ðŸ‡³",
    "name": "Brunei",
    "nationality": "Bruneian",
    "unicode": "U+1F1E7 U+1F1F3"
  },
  {
    "callingCode": "591",
    "code": "BO",
    "code3": "BOL",
    "emoji": "ðŸ‡§ðŸ‡´",
    "name": "Bolivia",
    "nationality": "Bolivian",
    "unicode": "U+1F1E7 U+1F1F4"
  },
  {
    "callingCode": "599",
    "code": "BQ",
    "code3": "BES",
    "emoji": "ðŸ‡§ðŸ‡¶",
    "name": "Caribbean Netherlands",
    "nationality": "Dutch",
    "unicode": "U+1F1E7 U+1F1F6"
  },
  {
    "callingCode": "55",
    "code": "BR",
    "code3": "BRA",
    "emoji": "ðŸ‡§ðŸ‡·",
    "name": "Brazil",
    "nationality": "Brazilian",
    "unicode": "U+1F1E7 U+1F1F7"
  },
  {
    "callingCode": "242",
    "code": "BS",
    "code3": "BHS",
    "emoji": "ðŸ‡§ðŸ‡¸",
    "name": "Bahamas",
    "nationality": "Bahamian",
    "unicode": "U+1F1E7 U+1F1F8"
  },
  {
    "callingCode": "975",
    "code": "BT",
    "code3": "BTN",
    "emoji": "ðŸ‡§ðŸ‡¹",
    "name": "Bhutan",
    "nationality": "Bhutanese",
    "unicode": "U+1F1E7 U+1F1F9"
  },
  {
    "callingCode": "267",
    "code": "BV",
    "code3": "BVT",
    "emoji": "ðŸ‡§ðŸ‡»",
    "name": "Bouvet Island",
    "nationality": "BouvetÃ¸yen",
    "unicode": "U+1F1E7 U+1F1FB"
  },
  {
    "callingCode": "267",
    "code": "BW",
    "code3": "BWA",
    "emoji": "ðŸ‡§ðŸ‡¼",
    "name": "Botswana",
    "nationality": "Botswanan",
    "unicode": "U+1F1E7 U+1F1FC"
  },
  {
    "callingCode": "375",
    "code": "BY",
    "code3": "BLR",
    "emoji": "ðŸ‡§ðŸ‡¾",
    "name": "Belarus",
    "nationality": "Belarusian",
    "unicode": "U+1F1E7 U+1F1FE"
  },
  {
    "callingCode": "501",
    "code": "BZ",
    "code3": "BLZ",
    "emoji": "ðŸ‡§ðŸ‡¿",
    "name": "Belize",
    "nationality": "Belizean",
    "unicode": "U+1F1E7 U+1F1FF"
  },
  {
    "callingCode": "1",
    "code": "CA",
    "code3": "CAN",
    "emoji": "ðŸ‡¨ðŸ‡¦",
    "name": "Canada",
    "nationality": "Canadian",
    "unicode": "U+1F1E8 U+1F1E6"
  },
  {
    "callingCode": "61",
    "code": "CC",
    "code3": "CCK",
    "emoji": "ðŸ‡¨ðŸ‡¨",
    "name": "Cocos (Keeling) Islands",
    "nationality": "Cocossian",
    "unicode": "U+1F1E8 U+1F1E8"
  },
  {
    "callingCode": "243",
    "code": "CD",
    "code3": "COD",
    "emoji": "ðŸ‡¨ðŸ‡©",
    "name": "Congo - Kinshasa",
    "nationality": "Congolese",
    "unicode": "U+1F1E8 U+1F1E9"
  },
  {
    "callingCode": "236",
    "code": "CF",
    "code3": "CAF",
    "emoji": "ðŸ‡¨ðŸ‡«",
    "name": "Central African Republic",
    "nationality": "Central African",
    "unicode": "U+1F1E8 U+1F1EB"
  },
  {
    "callingCode": "242",
    "code": "CG",
    "code3": "COG",
    "emoji": "ðŸ‡¨ðŸ‡¬",
    "name": "Congo - Brazzaville",
    "nationality": "Congolese",
    "unicode": "U+1F1E8 U+1F1EC"
  },
  {
    "callingCode": "41",
    "code": "CH",
    "code3": "CHE",
    "emoji": "ðŸ‡¨ðŸ‡­",
    "name": "Switzerland",
    "nationality": "Swiss German",
    "unicode": "U+1F1E8 U+1F1ED"
  },
  {
    "callingCode": "255",
    "code": "CI",
    "code3": "CIV",
    "emoji": "ðŸ‡¨ðŸ‡®",
    "name": "CÃ´te dâ€™Ivoire",
    "nationality": "Ivorian",
    "unicode": "U+1F1E8 U+1F1EE"
  },
  {
    "callingCode": "682",
    "code": "CK",
    "code3": "COK",
    "emoji": "ðŸ‡¨ðŸ‡°",
    "name": "Cook Islands",
    "nationality": "Cook Islander",
    "unicode": "U+1F1E8 U+1F1F0"
  },
  {
    "callingCode": "56",
    "code": "CL",
    "code3": "CHL",
    "emoji": "ðŸ‡¨ðŸ‡±",
    "name": "Chile",
    "nationality": "Chilean",
    "unicode": "U+1F1E8 U+1F1F1"
  },
  {
    "callingCode": "237",
    "code": "CM",
    "code3": "CMR",
    "emoji": "ðŸ‡¨ðŸ‡²",
    "name": "Cameroon",
    "nationality": "Cameroonian",
    "unicode": "U+1F1E8 U+1F1F2"
  },
  {
    "callingCode": "86",
    "code": "CN",
    "code3": "CHN",
    "emoji": "ðŸ‡¨ðŸ‡³",
    "name": "China",
    "nationality": "Chinese",
    "unicode": "U+1F1E8 U+1F1F3"
  },
  {
    "callingCode": "57",
    "code": "CO",
    "code3": "COL",
    "emoji": "ðŸ‡¨ðŸ‡´",
    "name": "Colombia",
    "nationality": "Colombian",
    "unicode": "U+1F1E8 U+1F1F4"
  },
  {
    "callingCode": "1",
    "code": "CP",
    "code3": "CPT",
    "emoji": "ðŸ‡¨ðŸ‡µ",
    "name": "Clipperton Island",
    "nationality": "Phoklandian",
    "unicode": "U+1F1E8 U+1F1F5"
  },
  {
    "callingCode": "506",
    "code": "CR",
    "code3": "CRI",
    "emoji": "ðŸ‡¨ðŸ‡·",
    "name": "Costa Rica",
    "nationality": "Costa Rican",
    "unicode": "U+1F1E8 U+1F1F7"
  },
  {
    "callingCode": "53",
    "code": "CU",
    "code3": "CUB",
    "emoji": "ðŸ‡¨ðŸ‡º",
    "name": "Cuba",
    "nationality": "Cuban",
    "unicode": "U+1F1E8 U+1F1FA"
  },
  {
    "callingCode": "238",
    "code": "CV",
    "code3": "CPV",
    "emoji": "ðŸ‡¨ðŸ‡»",
    "name": "Cape Verde",
    "nationality": "Cape Verdean",
    "unicode": "U+1F1E8 U+1F1FB"
  },
  {
    "callingCode": "599",
    "code": "CW",
    "code3": "CUW",
    "emoji": "ðŸ‡¨ðŸ‡¼",
    "name": "CuraÃ§ao",
    "nationality": "CuraÃ§aoan",
    "unicode": "U+1F1E8 U+1F1FC"
  },
  {
    "callingCode": "61",
    "code": "CX",
    "code3": "CXR",
    "emoji": "ðŸ‡¨ðŸ‡½",
    "name": "Christmas Island",
    "nationality": "Christmas Islander",
    "unicode": "U+1F1E8 U+1F1FD"
  },
  {
    "callingCode": "357",
    "code": "CY",
    "code3": "CYP",
    "emoji": "ðŸ‡¨ðŸ‡¾",
    "name": "Cyprus",
    "nationality": "Cypriot",
    "unicode": "U+1F1E8 U+1F1FE"
  },
  {
    "callingCode": "420",
    "code": "CZ",
    "code3": "CZE",
    "emoji": "ðŸ‡¨ðŸ‡¿",
    "name": "Czechia",
    "nationality": "Czech",
    "unicode": "U+1F1E8 U+1F1FF"
  },
  {
    "callingCode": "49",
    "code": "DE",
    "code3": "DEU",
    "emoji": "ðŸ‡©ðŸ‡ª",
    "name": "Germany",
    "nationality": "German",
    "unicode": "U+1F1E9 U+1F1EA"
  },
  {
    "callingCode": "1",
    "code": "DG",
    "code3": "DGA",
    "emoji": "ðŸ‡©ðŸ‡¬",
    "name": "Diego Garcia",
    "nationality": "Chagossian",
    "unicode": "U+1F1E9 U+1F1EC"
  },
  {
    "callingCode": "253",
    "code": "DJ",
    "code3": "DJI",
    "emoji": "ðŸ‡©ðŸ‡¯",
    "name": "Djibouti",
    "nationality": "Djiboutian",
    "unicode": "U+1F1E9 U+1F1EF"
  },
  {
    "callingCode": "45",
    "code": "DK",
    "code3": "DNK",
    "emoji": "ðŸ‡©ðŸ‡°",
    "name": "Denmark",
    "nationality": "Danish",
    "unicode": "U+1F1E9 U+1F1F0"
  },
  {
    "callingCode": "1-767",
    "code": "DM",
    "code3": "DMA",
    "emoji": "ðŸ‡©ðŸ‡²",
    "name": "Dominica",
    "nationality": "Dominican",
    "unicode": "U+1F1E9 U+1F1F2"
  },
  {
    "callingCode": "1-890",
    "code": "DO",
    "code3": "DOM",
    "emoji": "ðŸ‡©ðŸ‡´",
    "name": "Dominican Republic",
    "nationality": "Dominican",
    "unicode": "U+1F1E9 U+1F1F4"
  },
  {
    "callingCode": "213",
    "code": "DZ",
    "code3": "DZA",
    "emoji": "ðŸ‡©ðŸ‡¿",
    "name": "Algeria",
    "nationality": "Algerian",
    "unicode": "U+1F1E9 U+1F1FF"
  },
  {
    "callingCode": "1",
    "code": "EA",
    "code3": "EA",
    "emoji": "ðŸ‡ªðŸ‡¦",
    "name": "Ceuta & Melilla",
    "nationality": "Ceutan",
    "unicode": "U+1F1EA U+1F1E6"
  },
  {
    "callingCode": "593",
    "code": "EC",
    "code3": "ECU",
    "emoji": "ðŸ‡ªðŸ‡¨",
    "name": "Ecuador",
    "nationality": "Ecuadorean",
    "unicode": "U+1F1EA U+1F1E8"
  },
  {
    "callingCode": "372",
    "code": "EE",
    "code3": "EST",
    "emoji": "ðŸ‡ªðŸ‡ª",
    "name": "Estonia",
    "nationality": "Estonian",
    "unicode": "U+1F1EA U+1F1EA"
  },
  {
    "callingCode": "20",
    "code": "EG",
    "code3": "EGY",
    "emoji": "ðŸ‡ªðŸ‡¬",
    "name": "Egypt",
    "nationality": "Egyptian",
    "unicode": "U+1F1EA U+1F1EC"
  },
  {
    "callingCode": "212",
    "code": "EH",
    "code3": "ESH",
    "emoji": "ðŸ‡ªðŸ‡­",
    "name": "Western Sahara",
    "nationality": "Sahrawi",
    "unicode": "U+1F1EA U+1F1ED"
  },
  {
    "callingCode": "291",
    "code": "ER",
    "code3": "ERI",
    "emoji": "ðŸ‡ªðŸ‡·",
    "name": "Eritrea",
    "nationality": "Eritrean",
    "unicode": "U+1F1EA U+1F1F7"
  },
  {
    "callingCode": "34",
    "code": "ES",
    "code3": "ESP",
    "emoji": "ðŸ‡ªðŸ‡¸",
    "name": "Spain",
    "nationality": "Spanish",
    "unicode": "U+1F1EA U+1F1F8"
  },
  {
    "callingCode": "251",
    "code": "ET",
    "code3": "ETH",
    "emoji": "ðŸ‡ªðŸ‡¹",
    "name": "Ethiopia",
    "nationality": "Ethiopian",
    "unicode": "U+1F1EA U+1F1F9"
  },
  {
    "callingCode": "1",
    "code": "EU",
    "code3": "EU",
    "emoji": "ðŸ‡ªðŸ‡º",
    "name": "European Union",
    "nationality": "European",
    "unicode": "U+1F1EA U+1F1FA"
  },
  {
    "callingCode": "358",
    "code": "FI",
    "code3": "FIN",
    "emoji": "ðŸ‡«ðŸ‡®",
    "name": "Finland",
    "nationality": "Finnish",
    "unicode": "U+1F1EB U+1F1EE"
  },
  {
    "callingCode": "679",
    "code": "FJ",
    "code3": "FJI",
    "emoji": "ðŸ‡«ðŸ‡¯",
    "name": "Fiji",
    "nationality": "Fijian",
    "unicode": "U+1F1EB U+1F1EF"
  },
  {
    "callingCode": "500",
    "code": "FK",
    "code3": "FLK",
    "emoji": "ðŸ‡«ðŸ‡°",
    "name": "Falkland Islands",
    "nationality": "Falkland Islander",
    "unicode": "U+1F1EB U+1F1F0"
  },
  {
    "callingCode": "691",
    "code": "FM",
    "code3": "FSM",
    "emoji": "ðŸ‡«ðŸ‡²",
    "name": "Micronesia",
    "nationality": "Micronesian",
    "unicode": "U+1F1EB U+1F1F2"
  },
  {
    "callingCode": "298",
    "code": "FO",
    "code3": "FRO",
    "emoji": "ðŸ‡«ðŸ‡´",
    "name": "Faroe Islands",
    "nationality": "Faroese",
    "unicode": "U+1F1EB U+1F1F4"
  },
  {
    "callingCode": "33",
    "code": "FR",
    "code3": "FRA",
    "emoji": "ðŸ‡«ðŸ‡·",
    "name": "France",
    "nationality": "French",
    "unicode": "U+1F1EB U+1F1F7"
  },
  {
    "callingCode": "241",
    "code": "GA",
    "code3": "GAB",
    "emoji": "ðŸ‡¬ðŸ‡¦",
    "name": "Gabon",
    "nationality": "Gabonese",
    "unicode": "U+1F1EC U+1F1E6"
  },
  {
    "callingCode": "44",
    "code": "GB",
    "code3": "GBR",
    "emoji": "ðŸ‡¬ðŸ‡§",
    "name": "United Kingdom",
    "nationality": "British",
    "unicode": "U+1F1EC U+1F1E7"
  },
  {
    "callingCode": "473",
    "code": "GD",
    "code3": "GRD",
    "emoji": "ðŸ‡¬ðŸ‡©",
    "name": "Grenada",
    "nationality": "Grenadian",
    "unicode": "U+1F1EC U+1F1E9"
  },
  {
    "callingCode": "995",
    "code": "GE",
    "code3": "GEO",
    "emoji": "ðŸ‡¬ðŸ‡ª",
    "name": "Georgia",
    "nationality": "Georgian",
    "unicode": "U+1F1EC U+1F1EA"
  },
  {
    "callingCode": "594",
    "code": "GF",
    "code3": "GUF",
    "emoji": "ðŸ‡¬ðŸ‡«",
    "name": "French Guiana",
    "nationality": "French Guianan",
    "unicode": "U+1F1EC U+1F1EB"
  },
  {
    "callingCode": "1481",
    "code": "GG",
    "code3": "GGY",
    "emoji": "ðŸ‡¬ðŸ‡¬",
    "name": "Guernsey",
    "nationality": "Giernesi",
    "unicode": "U+1F1EC U+1F1EC"
  },
  {
    "callingCode": "233",
    "code": "GH",
    "code3": "GHA",
    "emoji": "ðŸ‡¬ðŸ‡­",
    "name": "Ghana",
    "nationality": "Ghanaian",
    "unicode": "U+1F1EC U+1F1ED"
  },
  {
    "callingCode": "350",
    "code": "GI",
    "code3": "GIB",
    "emoji": "ðŸ‡¬ðŸ‡®",
    "name": "Gibraltar",
    "nationality": "Gibraltarian",
    "unicode": "U+1F1EC U+1F1EE"
  },
  {
    "callingCode": "299",
    "code": "GL",
    "code3": "GRL",
    "emoji": "ðŸ‡¬ðŸ‡±",
    "name": "Greenland",
    "nationality": "Greenlandic",
    "unicode": "U+1F1EC U+1F1F1"
  },
  {
    "callingCode": "220",
    "code": "GM",
    "code3": "GMB",
    "emoji": "ðŸ‡¬ðŸ‡²",
    "name": "Gambia",
    "nationality": "Gambian",
    "unicode": "U+1F1EC U+1F1F2"
  },
  {
    "callingCode": "224",
    "code": "GN",
    "code3": "GIN",
    "emoji": "ðŸ‡¬ðŸ‡³",
    "name": "Guinea",
    "nationality": "Guinean",
    "unicode": "U+1F1EC U+1F1F3"
  },
  {
    "callingCode": "590",
    "code": "GP",
    "code3": "GLP",
    "emoji": "ðŸ‡¬ðŸ‡µ",
    "name": "Guadeloupe",
    "nationality": "Guadeloupean",
    "unicode": "U+1F1EC U+1F1F5"
  },
  {
    "callingCode": "30",
    "code": "GQ",
    "code3": "GNQ",
    "emoji": "ðŸ‡¬ðŸ‡¶",
    "name": "Equatorial Guinea",
    "nationality": "Equatoguinean",
    "unicode": "U+1F1EC U+1F1F6"
  },
  {
    "callingCode": "30",
    "code": "GR",
    "code3": "GRC",
    "emoji": "ðŸ‡¬ðŸ‡·",
    "name": "Greece",
    "nationality": "Greek",
    "unicode": "U+1F1EC U+1F1F7"
  },
  {
    "callingCode": "1",
    "code": "GS",
    "code3": "SGS",
    "emoji": "ðŸ‡¬ðŸ‡¸",
    "name": "South Georgia & South Sandwich Islands",
    "nationality": "South Georgian",
    "unicode": "U+1F1EC U+1F1F8"
  },
  {
    "callingCode": "502",
    "code": "GT",
    "code3": "GTM",
    "emoji": "ðŸ‡¬ðŸ‡¹",
    "name": "Guatemala",
    "nationality": "Guatemalan",
    "unicode": "U+1F1EC U+1F1F9"
  },
  {
    "callingCode": "671",
    "code": "GU",
    "code3": "GUM",
    "emoji": "ðŸ‡¬ðŸ‡º",
    "name": "Guam",
    "nationality": "Guamanian",
    "unicode": "U+1F1EC U+1F1FA"
  },
  {
    "callingCode": "245",
    "code": "GW",
    "code3": "GNB",
    "emoji": "ðŸ‡¬ðŸ‡¼",
    "name": "Guinea-Bissau",
    "nationality": "Bissau-Guinean",
    "unicode": "U+1F1EC U+1F1FC"
  },
  {
    "callingCode": "592",
    "code": "GY",
    "code3": "GUY",
    "emoji": "ðŸ‡¬ðŸ‡¾",
    "name": "Guyana",
    "nationality": "Guyanese",
    "unicode": "U+1F1EC U+1F1FE"
  },
  {
    "callingCode": "852",
    "code": "HK",
    "code3": "HKG",
    "emoji": "ðŸ‡­ðŸ‡°",
    "name": "Hong Kong SAR China",
    "nationality": "Hong Konger",
    "unicode": "U+1F1ED U+1F1F0"
  },
  {
    "callingCode": "1",
    "code": "HM",
    "code3": "HMD",
    "emoji": "ðŸ‡­ðŸ‡²",
    "name": "Heard & McDonald Islands",
    "nationality": "Citizen of Heard & McDonald Islands",
    "unicode": "U+1F1ED U+1F1F2"
  },
  {
    "callingCode": "504",
    "code": "HN",
    "code3": "HND",
    "emoji": "ðŸ‡­ðŸ‡³",
    "name": "Honduras",
    "nationality": "Honduran",
    "unicode": "U+1F1ED U+1F1F3"
  },
  {
    "callingCode": "385",
    "code": "HR",
    "code3": "HRV",
    "emoji": "ðŸ‡­ðŸ‡·",
    "name": "Croatia",
    "nationality": "Croatian",
    "unicode": "U+1F1ED U+1F1F7"
  },
  {
    "callingCode": "509",
    "code": "HT",
    "code3": "HTI",
    "emoji": "ðŸ‡­ðŸ‡¹",
    "name": "Haiti",
    "nationality": "Haitian",
    "unicode": "U+1F1ED U+1F1F9"
  },
  {
    "callingCode": "36",
    "code": "HU",
    "code3": "HUN",
    "emoji": "ðŸ‡­ðŸ‡º",
    "name": "Hungary",
    "nationality": "Hungarian",
    "unicode": "U+1F1ED U+1F1FA"
  },
  {
    "callingCode": "1",
    "code": "IC",
    "code3": "IC",
    "emoji": "ðŸ‡®ðŸ‡¨",
    "name": "Canary Islands",
    "nationality": "Canarian",
    "unicode": "U+1F1EE U+1F1E8"
  },
  {
    "callingCode": "62",
    "code": "ID",
    "code3": "IDN",
    "emoji": "ðŸ‡®ðŸ‡©",
    "name": "Indonesia",
    "nationality": "Indonesian",
    "unicode": "U+1F1EE U+1F1E9"
  },
  {
    "callingCode": "353",
    "code": "IE",
    "code3": "IRL",
    "emoji": "ðŸ‡®ðŸ‡ª",
    "name": "Ireland",
    "nationality": "Irish",
    "unicode": "U+1F1EE U+1F1EA"
  },
  {
    "callingCode": "972",
    "code": "IL",
    "code3": "ISR",
    "emoji": "ðŸ‡®ðŸ‡±",
    "name": "Israel",
    "nationality": "Israeli",
    "unicode": "U+1F1EE U+1F1F1"
  },
  {
    "callingCode": "44-1624",
    "code": "IM",
    "code3": "IMN",
    "emoji": "ðŸ‡®ðŸ‡²",
    "name": "Isle of Man",
    "nationality": "Manx",
    "unicode": "U+1F1EE U+1F1F2"
  },
  {
    "callingCode": "91",
    "code": "IN",
    "code3": "IND",
    "emoji": "ðŸ‡®ðŸ‡³",
    "name": "India",
    "nationality": "Indian",
    "unicode": "U+1F1EE U+1F1F3"
  },
  {
    "callingCode": "246",
    "code": "IO",
    "code3": "IOT",
    "emoji": "ðŸ‡®ðŸ‡´",
    "name": "British Indian Ocean Territory",
    "nationality": "British",
    "unicode": "U+1F1EE U+1F1F4"
  },
  {
    "callingCode": "964",
    "code": "IQ",
    "code3": "IRQ",
    "emoji": "ðŸ‡®ðŸ‡¶",
    "name": "Iraq",
    "nationality": "Iraqi",
    "unicode": "U+1F1EE U+1F1F6"
  },
  {
    "callingCode": "98",
    "code": "IR",
    "code3": "IRN",
    "emoji": "ðŸ‡®ðŸ‡·",
    "name": "Iran",
    "nationality": "Iranian",
    "unicode": "U+1F1EE U+1F1F7"
  },
  {
    "callingCode": "354",
    "code": "IS",
    "code3": "ISL",
    "emoji": "ðŸ‡®ðŸ‡¸",
    "name": "Iceland",
    "nationality": "Icelandic",
    "unicode": "U+1F1EE U+1F1F8"
  },
  {
    "callingCode": "39",
    "code": "IT",
    "code3": "ITA",
    "emoji": "ðŸ‡®ðŸ‡¹",
    "name": "Italy",
    "nationality": "Italian",
    "unicode": "U+1F1EE U+1F1F9"
  },
  {
    "callingCode": "1534",
    "code": "JE",
    "code3": "JEY",
    "emoji": "ðŸ‡¯ðŸ‡ª",
    "name": "Jersey",
    "nationality": "Jerseyman",
    "unicode": "U+1F1EF U+1F1EA"
  },
  {
    "callingCode": "876",
    "code": "JM",
    "code3": "JAM",
    "emoji": "ðŸ‡¯ðŸ‡²",
    "name": "Jamaica",
    "nationality": "Jamaican",
    "unicode": "U+1F1EF U+1F1F2"
  },
  {
    "callingCode": "962",
    "code": "JO",
    "code3": "JOR",
    "emoji": "ðŸ‡¯ðŸ‡´",
    "name": "Jordan",
    "nationality": "Jordanian",
    "unicode": "U+1F1EF U+1F1F4"
  },
  {
    "callingCode": "81",
    "code": "JP",
    "code3": "JPN",
    "emoji": "ðŸ‡¯ðŸ‡µ",
    "name": "Japan",
    "nationality": "Japanese",
    "unicode": "U+1F1EF U+1F1F5"
  },
  {
    "callingCode": "254",
    "code": "KE",
    "code3": "KEN",
    "emoji": "ðŸ‡°ðŸ‡ª",
    "name": "Kenya",
    "nationality": "Kenyan",
    "unicode": "U+1F1F0 U+1F1EA"
  },
  {
    "callingCode": "996",
    "code": "KG",
    "code3": "KGZ",
    "emoji": "ðŸ‡°ðŸ‡¬",
    "name": "Kyrgyzstan",
    "nationality": "Kyrgyz",
    "unicode": "U+1F1F0 U+1F1EC"
  },
  {
    "callingCode": "855",
    "code": "KH",
    "code3": "KHM",
    "emoji": "ðŸ‡°ðŸ‡­",
    "name": "Cambodia",
    "nationality": "Cambodian",
    "unicode": "U+1F1F0 U+1F1ED"
  },
  {
    "callingCode": "686",
    "code": "KI",
    "code3": "KIR",
    "emoji": "ðŸ‡°ðŸ‡®",
    "name": "Kiribati",
    "nationality": "I-Kiribati",
    "unicode": "U+1F1F0 U+1F1EE"
  },
  {
    "callingCode": "269",
    "code": "KM",
    "code3": "COM",
    "emoji": "ðŸ‡°ðŸ‡²",
    "name": "Comoros",
    "nationality": "Comoran",
    "unicode": "U+1F1F0 U+1F1F2"
  },
  {
    "callingCode": "1-869",
    "code": "KN",
    "code3": "KNA",
    "emoji": "ðŸ‡°ðŸ‡³",
    "name": "St. Kitts & Nevis",
    "nationality": "Kittitian",
    "unicode": "U+1F1F0 U+1F1F3"
  },
  {
    "callingCode": "850",
    "code": "KP",
    "code3": "PRK",
    "emoji": "ðŸ‡°ðŸ‡µ",
    "name": "North Korea",
    "nationality": "North Korean",
    "unicode": "U+1F1F0 U+1F1F5"
  },
  {
    "callingCode": "82",
    "code": "KR",
    "code3": "KOR",
    "emoji": "ðŸ‡°ðŸ‡·",
    "name": "South Korea",
    "nationality": "South Korean",
    "unicode": "U+1F1F0 U+1F1F7"
  },
  {
    "callingCode": "965",
    "code": "KW",
    "code3": "KWT",
    "emoji": "ðŸ‡°ðŸ‡¼",
    "name": "Kuwait",
    "nationality": "Kuwaiti",
    "unicode": "U+1F1F0 U+1F1FC"
  },
  {
    "callingCode": "1-345",
    "code": "KY",
    "code3": "CYM",
    "emoji": "ðŸ‡°ðŸ‡¾",
    "name": "Cayman Islands",
    "nationality": "Cayman Islander",
    "unicode": "U+1F1F0 U+1F1FE"
  },
  {
    "callingCode": "7",
    "code": "KZ",
    "code3": "KAZ",
    "emoji": "ðŸ‡°ðŸ‡¿",
    "name": "Kazakhstan",
    "nationality": "Kazakh",
    "unicode": "U+1F1F0 U+1F1FF"
  },
  {
    "callingCode": "856",
    "code": "LA",
    "code3": "LAO",
    "emoji": "ðŸ‡±ðŸ‡¦",
    "name": "Laos",
    "nationality": "Lao",
    "unicode": "U+1F1F1 U+1F1E6"
  },
  {
    "callingCode": "961",
    "code": "LB",
    "code3": "LBN",
    "emoji": "ðŸ‡±ðŸ‡§",
    "name": "Lebanon",
    "nationality": "Lebanese",
    "unicode": "U+1F1F1 U+1F1E7"
  },
  {
    "callingCode": "1-758",
    "code": "LC",
    "code3": "LCA",
    "emoji": "ðŸ‡±ðŸ‡¨",
    "name": "St. Lucia",
    "nationality": "St. Lucian",
    "unicode": "U+1F1F1 U+1F1E8"
  },
  {
    "callingCode": "423",
    "code": "LI",
    "code3": "LIE",
    "emoji": "ðŸ‡±ðŸ‡®",
    "name": "Liechtenstein",
    "nationality": "Liechtensteiner",
    "unicode": "U+1F1F1 U+1F1EE"
  },
  {
    "callingCode": "94",
    "code": "LK",
    "code3": "LKA",
    "emoji": "ðŸ‡±ðŸ‡°",
    "name": "Sri Lanka",
    "nationality": "Sri Lankan",
    "unicode": "U+1F1F1 U+1F1F0"
  },
  {
    "callingCode": "231",
    "code": "LR",
    "code3": "LBR",
    "emoji": "ðŸ‡±ðŸ‡·",
    "name": "Liberia",
    "nationality": "Liberian",
    "unicode": "U+1F1F1 U+1F1F7"
  },
  {
    "callingCode": "266",
    "code": "LS",
    "code3": "LSO",
    "emoji": "ðŸ‡±ðŸ‡¸",
    "name": "Lesotho",
    "nationality": "Mosotho",
    "unicode": "U+1F1F1 U+1F1F8"
  },
  {
    "callingCode": "370",
    "code": "LT",
    "code3": "LTU",
    "emoji": "ðŸ‡±ðŸ‡¹",
    "name": "Lithuania",
    "nationality": "Lithuanian",
    "unicode": "U+1F1F1 U+1F1F9"
  },
  {
    "callingCode": "352",
    "code": "LU",
    "code3": "LUX",
    "emoji": "ðŸ‡±ðŸ‡º",
    "name": "Luxembourg",
    "nationality": "Luxembourger",
    "unicode": "U+1F1F1 U+1F1FA"
  },
  {
    "callingCode": "371",
    "code": "LV",
    "code3": "LVA",
    "emoji": "ðŸ‡±ðŸ‡»",
    "name": "Latvia",
    "nationality": "Latvian",
    "unicode": "U+1F1F1 U+1F1FB"
  },
  {
    "callingCode": "218",
    "code": "LY",
    "code3": "LBY",
    "emoji": "ðŸ‡±ðŸ‡¾",
    "name": "Libya",
    "nationality": "Libyan",
    "unicode": "U+1F1F1 U+1F1FE"
  },
  {
    "callingCode": "212",
    "code": "MA",
    "code3": "MAR",
    "emoji": "ðŸ‡²ðŸ‡¦",
    "name": "Morocco",
    "nationality": "Moroccan",
    "unicode": "U+1F1F2 U+1F1E6"
  },
  {
    "callingCode": "377",
    "code": "MC",
    "code3": "MCO",
    "emoji": "ðŸ‡²ðŸ‡¨",
    "name": "Monaco",
    "nationality": "Monegasque",
    "unicode": "U+1F1F2 U+1F1E8"
  },
  {
    "callingCode": "373",
    "code": "MD",
    "code3": "MDA",
    "emoji": "ðŸ‡²ðŸ‡©",
    "name": "Moldova",
    "nationality": "Moldovan",
    "unicode": "U+1F1F2 U+1F1E9"
  },
  {
    "callingCode": "382",
    "code": "ME",
    "code3": "MNE",
    "emoji": "ðŸ‡²ðŸ‡ª",
    "name": "Montenegro",
    "nationality": "Montenegrin",
    "unicode": "U+1F1F2 U+1F1EA"
  },
  {
    "callingCode": "590",
    "code": "MF",
    "code3": "MAF",
    "emoji": "ðŸ‡²ðŸ‡«",
    "name": "St. Martin",
    "nationality": "St. Martiner",
    "unicode": "U+1F1F2 U+1F1EB"
  },
  {
    "callingCode": "261",
    "code": "MG",
    "code3": "MDG",
    "emoji": "ðŸ‡²ðŸ‡¬",
    "name": "Madagascar",
    "nationality": "Malagasy",
    "unicode": "U+1F1F2 U+1F1EC"
  },
  {
    "callingCode": "692",
    "code": "MH",
    "code3": "MHL",
    "emoji": "ðŸ‡²ðŸ‡­",
    "name": "Marshall Islands",
    "nationality": "Marshallese",
    "unicode": "U+1F1F2 U+1F1ED"
  },
  {
    "callingCode": "389",
    "code": "MK",
    "code3": "MKD",
    "emoji": "ðŸ‡²ðŸ‡°",
    "name": "Macedonia",
    "nationality": "Macedonian",
    "unicode": "U+1F1F2 U+1F1F0"
  },
  {
    "callingCode": "223",
    "code": "ML",
    "code3": "MLI",
    "emoji": "ðŸ‡²ðŸ‡±",
    "name": "Mali",
    "nationality": "Malian",
    "unicode": "U+1F1F2 U+1F1F1"
  },
  {
    "callingCode": "95",
    "code": "MM",
    "code3": "MMR",
    "emoji": "ðŸ‡²ðŸ‡²",
    "name": "Myanmar (Burma)",
    "nationality": "Burmese",
    "unicode": "U+1F1F2 U+1F1F2"
  },
  {
    "callingCode": "976",
    "code": "MN",
    "code3": "MNG",
    "emoji": "ðŸ‡²ðŸ‡³",
    "name": "Mongolia",
    "nationality": "Mongolian",
    "unicode": "U+1F1F2 U+1F1F3"
  },
  {
    "callingCode": "853",
    "code": "MO",
    "code3": "MAC",
    "emoji": "ðŸ‡²ðŸ‡´",
    "name": "Macau SAR China",
    "nationality": "Macanese",
    "unicode": "U+1F1F2 U+1F1F4"
  },
  {
    "callingCode": "1-670",
    "code": "MP",
    "code3": "MNP",
    "emoji": "ðŸ‡²ðŸ‡µ",
    "name": "Northern Mariana Islands",
    "nationality": "Northern Mariana Islander",
    "unicode": "U+1F1F2 U+1F1F5"
  },
  {
    "callingCode": "596",
    "code": "MQ",
    "code3": "MTQ",
    "emoji": "ðŸ‡²ðŸ‡¶",
    "name": "Martinique",
    "nationality": "Martiniquais",
    "unicode": "U+1F1F2 U+1F1F6"
  },
  {
    "callingCode": "222",
    "code": "MR",
    "code3": "MRT",
    "emoji": "ðŸ‡²ðŸ‡·",
    "name": "Mauritania",
    "nationality": "Mauritanian",
    "unicode": "U+1F1F2 U+1F1F7"
  },
  {
    "callingCode": "1-664",
    "code": "MS",
    "code3": "MSR",
    "emoji": "ðŸ‡²ðŸ‡¸",
    "name": "Montserrat",
    "nationality": "Montserratian",
    "unicode": "U+1F1F2 U+1F1F8"
  },
  {
    "callingCode": "356",
    "code": "MT",
    "code3": "MLT",
    "emoji": "ðŸ‡²ðŸ‡¹",
    "name": "Malta",
    "nationality": "Maltese",
    "unicode": "U+1F1F2 U+1F1F9"
  },
  {
    "callingCode": "230",
    "code": "MU",
    "code3": "MUS",
    "emoji": "ðŸ‡²ðŸ‡º",
    "name": "Mauritius",
    "nationality": "Mauritian",
    "unicode": "U+1F1F2 U+1F1FA"
  },
  {
    "callingCode": "960",
    "code": "MV",
    "code3": "MDV",
    "emoji": "ðŸ‡²ðŸ‡»",
    "name": "Maldives",
    "nationality": "Maldivian",
    "unicode": "U+1F1F2 U+1F1FB"
  },
  {
    "callingCode": "265",
    "code": "MW",
    "code3": "MWI",
    "emoji": "ðŸ‡²ðŸ‡¼",
    "name": "Malawi",
    "nationality": "Malawian",
    "unicode": "U+1F1F2 U+1F1FC"
  },
  {
    "callingCode": "52",
    "code": "MX",
    "code3": "MEX",
    "emoji": "ðŸ‡²ðŸ‡½",
    "name": "Mexico",
    "nationality": "Mexican",
    "unicode": "U+1F1F2 U+1F1FD"
  },
  {
    "callingCode": "60",
    "code": "MY",
    "code3": "MYS",
    "emoji": "ðŸ‡²ðŸ‡¾",
    "name": "Malaysia",
    "nationality": "Malaysian",
    "unicode": "U+1F1F2 U+1F1FE"
  },
  {
    "callingCode": "258",
    "code": "MZ",
    "code3": "MOZ",
    "emoji": "ðŸ‡²ðŸ‡¿",
    "name": "Mozambique",
    "nationality": "Mozambican",
    "unicode": "U+1F1F2 U+1F1FF"
  },
  {
    "callingCode": "264",
    "code": "NA",
    "code3": "NAM",
    "emoji": "ðŸ‡³ðŸ‡¦",
    "name": "Namibia",
    "nationality": "Namibian",
    "unicode": "U+1F1F3 U+1F1E6"
  },
  {
    "callingCode": "678",
    "code": "NC",
    "code3": "NCL",
    "emoji": "ðŸ‡³ðŸ‡¨",
    "name": "New Caledonia",
    "nationality": "New Caledonian",
    "unicode": "U+1F1F3 U+1F1E8"
  },
  {
    "callingCode": "227",
    "code": "NE",
    "code3": "NER",
    "emoji": "ðŸ‡³ðŸ‡ª",
    "name": "Niger",
    "nationality": "Nigerien",
    "unicode": "U+1F1F3 U+1F1EA"
  },
  {
    "callingCode": "672",
    "code": "NF",
    "code3": "NFK",
    "emoji": "ðŸ‡³ðŸ‡«",
    "name": "Norfolk Island",
    "nationality": "Norfolk Islander",
    "unicode": "U+1F1F3 U+1F1EB"
  },
  {
    "callingCode": "234",
    "code": "NG",
    "code3": "NGA",
    "emoji": "ðŸ‡³ðŸ‡¬",
    "name": "Nigeria",
    "nationality": "Nigerian",
    "unicode": "U+1F1F3 U+1F1EC"
  },
  {
    "callingCode": "505",
    "code": "NI",
    "code3": "NIC",
    "emoji": "ðŸ‡³ðŸ‡®",
    "name": "Nicaragua",
    "nationality": "Nicaraguan",
    "unicode": "U+1F1F3 U+1F1EE"
  },
  {
    "callingCode": "31",
    "code": "NL",
    "code3": "NLD",
    "emoji": "ðŸ‡³ðŸ‡±",
    "name": "Netherlands",
    "nationality": "Dutch",
    "unicode": "U+1F1F3 U+1F1F1"
  },
  {
    "callingCode": "47",
    "code": "NO",
    "code3": "NOR",
    "emoji": "ðŸ‡³ðŸ‡´",
    "name": "Norway",
    "nationality": "Norwegian",
    "unicode": "U+1F1F3 U+1F1F4"
  },
  {
    "callingCode": "977",
    "code": "NP",
    "code3": "NPL",
    "emoji": "ðŸ‡³ðŸ‡µ",
    "name": "Nepal",
    "nationality": "Nepalese",
    "unicode": "U+1F1F3 U+1F1F5"
  },
  {
    "callingCode": "674",
    "code": "NR",
    "code3": "NRU",
    "emoji": "ðŸ‡³ðŸ‡·",
    "name": "Nauru",
    "nationality": "Nauruan",
    "unicode": "U+1F1F3 U+1F1F7"
  },
  {
    "callingCode": "683",
    "code": "NU",
    "code3": "NIU",
    "emoji": "ðŸ‡³ðŸ‡º",
    "name": "Niue",
    "nationality": "Niuean",
    "unicode": "U+1F1F3 U+1F1FA"
  },
  {
    "callingCode": "64",
    "code": "NZ",
    "code3": "NZL",
    "emoji": "ðŸ‡³ðŸ‡¿",
    "name": "New Zealand",
    "nationality": "New Zealander",
    "unicode": "U+1F1F3 U+1F1FF"
  },
  {
    "callingCode": "968",
    "code": "OM",
    "code3": "OMN",
    "emoji": "ðŸ‡´ðŸ‡²",
    "name": "Oman",
    "nationality": "Omani",
    "unicode": "U+1F1F4 U+1F1F2"
  },
  {
    "callingCode": "507",
    "code": "PA",
    "code3": "PAN",
    "emoji": "ðŸ‡µðŸ‡¦",
    "name": "Panama",
    "nationality": "Panamanian",
    "unicode": "U+1F1F5 U+1F1E6"
  },
  {
    "callingCode": "51",
    "code": "PE",
    "code3": "PER",
    "emoji": "ðŸ‡µðŸ‡ª",
    "name": "Peru",
    "nationality": "Peruvian",
    "unicode": "U+1F1F5 U+1F1EA"
  },
  {
    "callingCode": "689",
    "code": "PF",
    "code3": "PYF",
    "emoji": "ðŸ‡µðŸ‡«",
    "name": "French Polynesia",
    "nationality": "French Polynesian",
    "unicode": "U+1F1F5 U+1F1EB"
  },
  {
    "callingCode": "675",
    "code": "PG",
    "code3": "PNG",
    "emoji": "ðŸ‡µðŸ‡¬",
    "name": "Papua New Guinea",
    "nationality": "Papua New Guinean",
    "unicode": "U+1F1F5 U+1F1EC"
  },
  {
    "callingCode": "63",
    "code": "PH",
    "code3": "PHL",
    "emoji": "ðŸ‡µðŸ‡­",
    "name": "Philippines",
    "nationality": "Filipino",
    "unicode": "U+1F1F5 U+1F1ED"
  },
  {
    "callingCode": "92",
    "code": "PK",
    "code3": "PAK",
    "emoji": "ðŸ‡µðŸ‡°",
    "name": "Pakistan",
    "nationality": "Pakistani",
    "unicode": "U+1F1F5 U+1F1F0"
  },
  {
    "callingCode": "48",
    "code": "PL",
    "code3": "POL",
    "emoji": "ðŸ‡µðŸ‡±",
    "name": "Poland",
    "nationality": "Polish",
    "unicode": "U+1F1F5 U+1F1F1"
  },
  {
    "callingCode": "580",
    "code": "PM",
    "code3": "SPM",
    "emoji": "ðŸ‡µðŸ‡²",
    "name": "St. Pierre & Miquelon",
    "nationality": "Saint-Pierrais",
    "unicode": "U+1F1F5 U+1F1F2"
  },
  {
    "callingCode": "870",
    "code": "PN",
    "code3": "PCN",
    "emoji": "ðŸ‡µðŸ‡³",
    "name": "Pitcairn Islands",
    "nationality": "Pitcairn Islander",
    "unicode": "U+1F1F5 U+1F1F3"
  },
  {
    "callingCode": "1-787",
    "code": "PR",
    "code3": "PRI",
    "emoji": "ðŸ‡µðŸ‡·",
    "name": "Puerto Rico",
    "nationality": "Puerto Rican",
    "unicode": "U+1F1F5 U+1F1F7"
  },
  {
    "callingCode": "970",
    "code": "PS",
    "code3": "PSE",
    "emoji": "ðŸ‡µðŸ‡¸",
    "name": "Palestinian Territories",
    "nationality": "Palestinian",
    "unicode": "U+1F1F5 U+1F1F8"
  },
  {
    "callingCode": "351",
    "code": "PT",
    "code3": "PRT",
    "emoji": "ðŸ‡µðŸ‡¹",
    "name": "Portugal",
    "nationality": "Portuguese",
    "unicode": "U+1F1F5 U+1F1F9"
  },
  {
    "callingCode": "680",
    "code": "PW",
    "code3": "PLW",
    "emoji": "ðŸ‡µðŸ‡¼",
    "name": "Palau",
    "nationality": "Palauan",
    "unicode": "U+1F1F5 U+1F1FC"
  },
  {
    "callingCode": "595",
    "code": "PY",
    "code3": "PRY",
    "emoji": "ðŸ‡µðŸ‡¾",
    "name": "Paraguay",
    "nationality": "Paraguayan",
    "unicode": "U+1F1F5 U+1F1FE"
  },
  {
    "callingCode": "794",
    "code": "QA",
    "code3": "QAT",
    "emoji": "ðŸ‡¶ðŸ‡¦",
    "name": "Qatar",
    "nationality": "Qatari",
    "unicode": "U+1F1F6 U+1F1E6"
  },
  {
    "callingCode": "262",
    "code": "RE",
    "code3": "REU",
    "emoji": "ðŸ‡·ðŸ‡ª",
    "name": "RÃ©union",
    "nationality": "RÃ©unionese",
    "unicode": "U+1F1F7 U+1F1EA"
  },
  {
    "callingCode": "40",
    "code": "RO",
    "code3": "ROU",
    "emoji": "ðŸ‡·ðŸ‡´",
    "name": "Romania",
    "nationality": "Romanian",
    "unicode": "U+1F1F7 U+1F1F4"
  },
  {
    "callingCode": "381",
    "code": "RS",
    "code3": "SRB",
    "emoji": "ðŸ‡·ðŸ‡¸",
    "name": "Serbia",
    "nationality": "Serbian",
    "unicode": "U+1F1F7 U+1F1F8"
  },
  {
    "callingCode": "7",
    "code": "RU",
    "code3": "RUS",
    "emoji": "ðŸ‡·ðŸ‡º",
    "name": "Russia",
    "nationality": "Russian",
    "unicode": "U+1F1F7 U+1F1FA"
  },
  {
    "callingCode": "250",
    "code": "RW",
    "code3": "RWA",
    "emoji": "ðŸ‡·ðŸ‡¼",
    "name": "Rwanda",
    "nationality": "Rwandan",
    "unicode": "U+1F1F7 U+1F1FC"
  },
  {
    "callingCode": "966",
    "code": "SA",
    "code3": "SAU",
    "emoji": "ðŸ‡¸ðŸ‡¦",
    "name": "Saudi Arabia",
    "nationality": "Saudi Arabian",
    "unicode": "U+1F1F8 U+1F1E6"
  },
  {
    "callingCode": "677",
    "code": "SB",
    "code3": "SLB",
    "emoji": "ðŸ‡¸ðŸ‡§",
    "name": "Solomon Islands",
    "nationality": "Solomon Islander",
    "unicode": "U+1F1F8 U+1F1E7"
  },
  {
    "callingCode": "248",
    "code": "SC",
    "code3": "SYC",
    "emoji": "ðŸ‡¸ðŸ‡¨",
    "name": "Seychelles",
    "nationality": "Seychellois",
    "unicode": "U+1F1F8 U+1F1E8"
  },
  {
    "callingCode": "249",
    "code": "SD",
    "code3": "SDN",
    "emoji": "ðŸ‡¸ðŸ‡©",
    "name": "Sudan",
    "nationality": "Sudanese",
    "unicode": "U+1F1F8 U+1F1E9"
  },
  {
    "callingCode": "46",
    "code": "SE",
    "code3": "SWE",
    "emoji": "ðŸ‡¸ðŸ‡ª",
    "name": "Sweden",
    "nationality": "Swedish",
    "unicode": "U+1F1F8 U+1F1EA"
  },
  {
    "callingCode": "65",
    "code": "SG",
    "code3": "SGP",
    "emoji": "ðŸ‡¸ðŸ‡¬",
    "name": "Singapore",
    "nationality": "Singaporean",
    "unicode": "U+1F1F8 U+1F1EC"
  },
  {
    "callingCode": "290",
    "code": "SH",
    "code3": "SHN",
    "emoji": "ðŸ‡¸ðŸ‡­",
    "name": "St. Helena",
    "nationality": "St. Helenian",
    "unicode": "U+1F1F8 U+1F1ED"
  },
  {
    "callingCode": "386",
    "code": "SI",
    "code3": "SVN",
    "emoji": "ðŸ‡¸ðŸ‡®",
    "name": "Slovenia",
    "nationality": "Slovenian",
    "unicode": "U+1F1F8 U+1F1EE"
  },
  {
    "callingCode": "47",
    "code": "SJ",
    "code3": "SJM",
    "emoji": "ðŸ‡¸ðŸ‡¯",
    "name": "Svalbard & Jan Mayen",
    "nationality": "Norwegian",
    "unicode": "U+1F1F8 U+1F1EF"
  },
  {
    "callingCode": "421",
    "code": "SK",
    "code3": "SVK",
    "emoji": "ðŸ‡¸ðŸ‡°",
    "name": "Slovakia",
    "nationality": "Slovak",
    "unicode": "U+1F1F8 U+1F1F0"
  },
  {
    "callingCode": "232",
    "code": "SL",
    "code3": "SLE",
    "emoji": "ðŸ‡¸ðŸ‡±",
    "name": "Sierra Leone",
    "nationality": "Sierra Leonean",
    "unicode": "U+1F1F8 U+1F1F1"
  },
  {
    "callingCode": "378",
    "code": "SM",
    "code3": "SMR",
    "emoji": "ðŸ‡¸ðŸ‡²",
    "name": "San Marino",
    "nationality": "Sammarinese",
    "unicode": "U+1F1F8 U+1F1F2"
  },
  {
    "callingCode": "221",
    "code": "SN",
    "code3": "SEN",
    "emoji": "ðŸ‡¸ðŸ‡³",
    "name": "Senegal",
    "nationality": "Senegalese",
    "unicode": "U+1F1F8 U+1F1F3"
  },
  {
    "callingCode": "252",
    "code": "SO",
    "code3": "SOM",
    "emoji": "ðŸ‡¸ðŸ‡´",
    "name": "Somalia",
    "nationality": "Somali",
    "unicode": "U+1F1F8 U+1F1F4"
  },
  {
    "callingCode": "597",
    "code": "SR",
    "code3": "SUR",
    "emoji": "ðŸ‡¸ðŸ‡·",
    "name": "Suriname",
    "nationality": "Surinamese",
    "unicode": "U+1F1F8 U+1F1F7"
  },
  {
    "callingCode": "211",
    "code": "SS",
    "code3": "SSD",
    "emoji": "ðŸ‡¸ðŸ‡¸",
    "name": "South Sudan",
    "nationality": "South Sudanese",
    "unicode": "U+1F1F8 U+1F1F8"
  },
  {
    "callingCode": "239",
    "code": "ST",
    "code3": "STP",
    "emoji": "ðŸ‡¸ðŸ‡¹",
    "name": "SÃ£o TomÃ© & PrÃ­ncipe",
    "nationality": "SÃ£o TomÃ©an",
    "unicode": "U+1F1F8 U+1F1F9"
  },
  {
    "callingCode": "503",
    "code": "SV",
    "code3": "SLV",
    "emoji": "ðŸ‡¸ðŸ‡»",
    "name": "El Salvador",
    "nationality": "Salvadoran",
    "unicode": "U+1F1F8 U+1F1FB"
  },
  {
    "callingCode": "599",
    "code": "SX",
    "code3": "SXM",
    "emoji": "ðŸ‡¸ðŸ‡½",
    "name": "Sint Maarten",
    "nationality": "Sint Maartener",
    "unicode": "U+1F1F8 U+1F1FD"
  },
  {
    "callingCode": "963",
    "code": "SY",
    "code3": "SYR",
    "emoji": "ðŸ‡¸ðŸ‡¾",
    "name": "Syria",
    "nationality": "Syrian",
    "unicode": "U+1F1F8 U+1F1FE"
  },
  {
    "callingCode": "268",
    "code": "SZ",
    "code3": "SWZ",
    "emoji": "ðŸ‡¸ðŸ‡¿",
    "name": "Swaziland",
    "nationality": "Swazi",
    "unicode": "U+1F1F8 U+1F1FF"
  },
  {
    "callingCode": "1",
    "code": "TA",
    "code3": "TAA",
    "emoji": "ðŸ‡¹ðŸ‡¦",
    "name": "Tristan da Cunha",
    "nationality": "Tristanian",
    "unicode": "U+1F1F9 U+1F1E6"
  },
  {
    "callingCode": "1-649",
    "code": "TC",
    "code3": "TCA",
    "emoji": "ðŸ‡¹ðŸ‡¨",
    "name": "Turks & Caicos Islands",
    "nationality": "Turks & Caicos Islander",
    "unicode": "U+1F1F9 U+1F1E8"
  },
  {
    "callingCode": "235",
    "code": "TD",
    "code3": "TCD",
    "emoji": "ðŸ‡¹ðŸ‡©",
    "name": "Chad",
    "nationality": "Chadian",
    "unicode": "U+1F1F9 U+1F1E9"
  },
  {
    "callingCode": "1",
    "code": "TF",
    "code3": "ATF",
    "emoji": "ðŸ‡¹ðŸ‡«",
    "name": "French Southern Territories",
    "nationality": "French",
    "unicode": "U+1F1F9 U+1F1EB"
  },
  {
    "callingCode": "228",
    "code": "TG",
    "code3": "TGO",
    "emoji": "ðŸ‡¹ðŸ‡¬",
    "name": "Togo",
    "nationality": "Togolese",
    "unicode": "U+1F1F9 U+1F1EC"
  },
  {
    "callingCode": "66",
    "code": "TH",
    "code3": "THA",
    "emoji": "ðŸ‡¹ðŸ‡­",
    "name": "Thailand",
    "nationality": "Thai",
    "unicode": "U+1F1F9 U+1F1ED"
  },
  {
    "callingCode": "992",
    "code": "TJ",
    "code3": "TJK",
    "emoji": "ðŸ‡¹ðŸ‡¯",
    "name": "Tajikistan",
    "nationality": "Tajik",
    "unicode": "U+1F1F9 U+1F1EF"
  },
  {
    "callingCode": "690",
    "code": "TK",
    "code3": "TKL",
    "emoji": "ðŸ‡¹ðŸ‡°",
    "name": "Tokelau",
    "nationality": "Tokelauan",
    "unicode": "U+1F1F9 U+1F1F0"
  },
  {
    "callingCode": "670",
    "code": "TL",
    "code3": "TLS",
    "emoji": "ðŸ‡¹ðŸ‡±",
    "name": "Timor-Leste",
    "nationality": "East Timorese",
    "unicode": "U+1F1F9 U+1F1F1"
  },
  {
    "callingCode": "993",
    "code": "TM",
    "code3": "TKM",
    "emoji": "ðŸ‡¹ðŸ‡²",
    "name": "Turkmenistan",
    "nationality": "Turkmen",
    "unicode": "U+1F1F9 U+1F1F2"
  },
  {
    "callingCode": "216",
    "code": "TN",
    "code3": "TUN",
    "emoji": "ðŸ‡¹ðŸ‡³",
    "name": "Tunisia",
    "nationality": "Tunisian",
    "unicode": "U+1F1F9 U+1F1F3"
  },
  {
    "callingCode": "676",
    "code": "TO",
    "code3": "TON",
    "emoji": "ðŸ‡¹ðŸ‡´",
    "name": "Tonga",
    "nationality": "Tongan",
    "unicode": "U+1F1F9 U+1F1F4"
  },
  {
    "callingCode": "90",
    "code": "TR",
    "code3": "TUR",
    "emoji": "ðŸ‡¹ðŸ‡·",
    "name": "Turkey",
    "nationality": "Turkish",
    "unicode": "U+1F1F9 U+1F1F7"
  },
  {
    "callingCode": "1-868",
    "code": "TT",
    "code3": "TTO",
    "emoji": "ðŸ‡¹ðŸ‡¹",
    "name": "Trinidad & Tobago",
    "nationality": "Trinidadian",
    "unicode": "U+1F1F9 U+1F1F9"
  },
  {
    "callingCode": "688",
    "code": "TV",
    "code3": "TUV",
    "emoji": "ðŸ‡¹ðŸ‡»",
    "name": "Tuvalu",
    "nationality": "Tuvaluan",
    "unicode": "U+1F1F9 U+1F1FB"
  },
  {
    "callingCode": "886",
    "code": "TW",
    "code3": "TWN",
    "emoji": "ðŸ‡¹ðŸ‡¼",
    "name": "Taiwan",
    "nationality": "Taiwanese",
    "unicode": "U+1F1F9 U+1F1FC"
  },
  {
    "callingCode": "255",
    "code": "TZ",
    "code3": "TZA",
    "emoji": "ðŸ‡¹ðŸ‡¿",
    "name": "Tanzania",
    "nationality": "Tanzanian",
    "unicode": "U+1F1F9 U+1F1FF"
  },
  {
    "callingCode": "380",
    "code": "UA",
    "code3": "UKR",
    "emoji": "ðŸ‡ºðŸ‡¦",
    "name": "Ukraine",
    "nationality": "Ukrainian",
    "unicode": "U+1F1FA U+1F1E6"
  },
  {
    "callingCode": "256",
    "code": "UG",
    "code3": "UGA",
    "emoji": "ðŸ‡ºðŸ‡¬",
    "name": "Uganda",
    "nationality": "Ugandan",
    "unicode": "U+1F1FA U+1F1EC"
  },
  {
    "callingCode": "1",
    "code": "UM",
    "code3": "UMI",
    "emoji": "ðŸ‡ºðŸ‡²",
    "name": "U.S. Outlying Islands",
    "nationality": "American Islander",
    "unicode": "U+1F1FA U+1F1F2"
  },
  {
    "callingCode": "1",
    "code": "UN",
    "code3": "UN",
    "emoji": "ðŸ‡ºðŸ‡³",
    "name": "United Nations",
    "nationality": "United Nations",
    "unicode": "U+1F1FA U+1F1F3"
  },
  {
    "callingCode": "1",
    "code": "US",
    "code3": "USA",
    "emoji": "ðŸ‡ºðŸ‡¸",
    "name": "United States",
    "nationality": "American",
    "unicode": "U+1F1FA U+1F1F8"
  },
  {
    "callingCode": "598",
    "code": "UY",
    "code3": "URY",
    "emoji": "ðŸ‡ºðŸ‡¾",
    "name": "Uruguay",
    "nationality": "Uruguayan",
    "unicode": "U+1F1FA U+1F1FE"
  },
  {
    "callingCode": "988",
    "code": "UZ",
    "code3": "UZB",
    "emoji": "ðŸ‡ºðŸ‡¿",
    "name": "Uzbekistan",
    "nationality": "Uzbek",
    "unicode": "U+1F1FA U+1F1FF"
  },
  {
    "callingCode": "379",
    "code": "VA",
    "code3": "VAT",
    "emoji": "ðŸ‡»ðŸ‡¦",
    "name": "Vatican City",
    "nationality": "Vatican Citizen",
    "unicode": "U+1F1FB U+1F1E6"
  },
  {
    "callingCode": "1-784",
    "code": "VC",
    "code3": "VCT",
    "emoji": "ðŸ‡»ðŸ‡¨",
    "name": "St. Vincent & Grenadines",
    "nationality": " Saint Vincentian",
    "unicode": "U+1F1FB U+1F1E8"
  },
  {
    "callingCode": "58",
    "code": "VE",
    "code3": "VEN",
    "emoji": "ðŸ‡»ðŸ‡ª",
    "name": "Venezuela",
    "nationality": "Venezuelan",
    "unicode": "U+1F1FB U+1F1EA"
  },
  {
    "callingCode": "1-284",
    "code": "VG",
    "code3": "VGB",
    "emoji": "ðŸ‡»ðŸ‡¬",
    "name": "British Virgin Islands",
    "nationality": "British Virgin Islander",
    "unicode": "U+1F1FB U+1F1EC"
  },
  {
    "callingCode": "1-340",
    "code": "VI",
    "code3": "VIR",
    "emoji": "ðŸ‡»ðŸ‡®",
    "name": "U.S. Virgin Islands",
    "nationality": "American Virgin Islander",
    "unicode": "U+1F1FB U+1F1EE"
  },
  {
    "callingCode": "84",
    "code": "VN",
    "code3": "VNM",
    "emoji": "ðŸ‡»ðŸ‡³",
    "name": "Vietnam",
    "nationality": "Vietnamese",
    "unicode": "U+1F1FB U+1F1F3"
  },
  {
    "callingCode": "678",
    "code": "VU",
    "code3": "VUT",
    "emoji": "ðŸ‡»ðŸ‡º",
    "name": "Vanuatu",
    "nationality": "Ni-Vanuatu",
    "unicode": "U+1F1FB U+1F1FA"
  },
  {
    "callingCode": "618",
    "code": "WF",
    "code3": "WLF",
    "emoji": "ðŸ‡¼ðŸ‡«",
    "name": "Wallis & Futuna",
    "nationality": "Wallisian",
    "unicode": "U+1F1FC U+1F1EB"
  },
  {
    "callingCode": "685",
    "code": "WS",
    "code3": "WSM",
    "emoji": "ðŸ‡¼ðŸ‡¸",
    "name": "Samoa",
    "nationality": "Samoan",
    "unicode": "U+1F1FC U+1F1F8"
  },
  {
    "callingCode": "383",
    "code": "XK",
    "code3": "KOS",
    "emoji": "ðŸ‡½ðŸ‡°",
    "name": "Kosovo",
    "nationality": "Kosovan",
    "unicode": "U+1F1FD U+1F1F0"
  },
  {
    "callingCode": "967",
    "code": "YE",
    "code3": "YEM",
    "emoji": "ðŸ‡¾ðŸ‡ª",
    "name": "Yemen",
    "nationality": "Yemeni",
    "unicode": "U+1F1FE U+1F1EA"
  },
  {
    "callingCode": "262",
    "code": "YT",
    "code3": "MYT",
    "emoji": "ðŸ‡¾ðŸ‡¹",
    "name": "Mayotte",
    "nationality": "Mahoran",
    "unicode": "U+1F1FE U+1F1F9"
  },
  {
    "callingCode": "27",
    "code": "ZA",
    "code3": "ZAF",
    "emoji": "ðŸ‡¿ðŸ‡¦",
    "name": "South Africa",
    "nationality": "South African",
    "unicode": "U+1F1FF U+1F1E6"
  },
  {
    "callingCode": "260",
    "code": "ZM",
    "code3": "ZMB",
    "emoji": "ðŸ‡¿ðŸ‡²",
    "name": "Zambia",
    "nationality": "Zambian",
    "unicode": "U+1F1FF U+1F1F2"
  },
  {
    "callingCode": "263",
    "code": "ZW",
    "code3": "ZWE",
    "emoji": "ðŸ‡¿ðŸ‡¼",
    "name": "Zimbabwe",
    "nationality": "Zimbabwean",
    "unicode": "U+1F1FF U+1F1FC"
  }
]
